     2.100          NAVIGATION                              RINEX VERSION / TYPE
fic2rin                                 11/23/2008 01:12:32 PGM / RUN BY / DATE
                                                            END OF HEADER
10 08 11 22  8  0  0.0 -.750040635467D-05 -.454747350886D-12  .000000000000D+00
     .400000000000D+01 -.143750000000D+01  .474234039466D-08 -.121500956628D+01
    -.614672899246D-07  .821945583448D-02  .366568565369D-05  .515373549652D+04
     .547200000000D+06  .135973095894D-06 -.222611498765D+01 -.335276126862D-07
     .961067916222D+00  .303281250000D+03  .562055969967D+00 -.837963475971D-08
    -.625026034843D-10  .100000000000D+01  .150600000000D+04  .000000000000D+00
     .240000000000D+01  .000000000000D+00 -.279396772385D-08  .400000000000D+01
     .540006000000D+06  .400000000000D+01
11 08 11 22  8  0  0.0  .150264240801D-04 -.102318153949D-11  .000000000000D+00
     .400000000000D+02  .669687500000D+02  .595917679506D-08  .218802207110D+01
     .344216823578D-05  .892545992974D-02  .928528606892D-05  .515366569901D+04
     .547200000000D+06 -.204890966415D-06  .278351929945D+01 -.111758708954D-06
     .890525898184D+00  .163093750000D+03  .648888108931D+00 -.871679166079D-08
     .928610108910D-10  .100000000000D+01  .150600000000D+04  .000000000000D+00
     .240000000000D+01  .000000000000D+00 -.121071934700D-07  .400000000000D+02
     .540006000000D+06  .400000000000D+01
13 08 11 22  8  0  0.0  .278230290860D-03  .159161572810D-11  .000000000000D+00
     .108000000000D+03 -.504687500000D+02  .367943897769D-08 -.148746781665D+01
    -.250339508057D-05  .359853275586D-02  .879541039467D-05  .515355407715D+04
     .547200000000D+06  .558793544769D-08 -.115117636474D+01  .949949026108D-07
     .995218308049D+00  .231656250000D+03  .154635760734D+01 -.768710591310D-08
    -.108575951196D-09  .100000000000D+01  .150600000000D+04  .000000000000D+00
     .340000000000D+01  .000000000000D+00 -.111758708954D-07  .108000000000D+03
     .540006000000D+06  .400000000000D+01
14 08 11 22  8  0  0.0 -.191443134099D-03  .488853402203D-11  .000000000000D+00
     .940000000000D+02 -.657187500000D+02  .375158484000D-08 -.185150821614D+01
    -.331364572048D-05  .440239929594D-02  .930577516556D-05  .515376213264D+04
     .547200000000D+06  .707805156708D-07 -.116953359769D+01 -.279396772385D-07
     .988841007803D+00  .213750000000D+03 -.213806670441D+01 -.768246286256D-08
    -.121433629627D-09  .100000000000D+01  .150600000000D+04  .000000000000D+00
     .240000000000D+01  .000000000000D+00 -.931322574615D-08  .940000000000D+02
     .540006000000D+06  .400000000000D+01
15 08 11 22  8  0  0.0 -.214891973883D-03 -.613908923697D-11  .000000000000D+00
     .180000000000D+02 -.498750000000D+02  .450340187048D-08 -.111988959555D+01
    -.271387398243D-05  .119380897377D-02  .942870974541D-05  .515373549652D+04
     .547200000000D+06 -.167638063431D-07 -.121618562075D+01  .186264514923D-08
     .957049638673D+00  .197656250000D+03 -.985809218339D+00 -.810962351266D-08
    -.135005623526D-09  .100000000000D+01  .150600000000D+04  .000000000000D+00
     .240000000000D+01  .000000000000D+00 -.977888703346D-08  .180000000000D+02
     .540006000000D+06  .400000000000D+01
16 08 11 22  8  0  0.0  .937650911510D-04 -.238742359215D-11  .000000000000D+00
     .380000000000D+02 -.236875000000D+02  .474555481426D-08  .133588865998D-01
    -.130757689476D-05  .478595565073D-02  .542961061001D-05  .515370576477D+04
     .547200000000D+06  .689178705215D-07  .910797840740D+00 -.372529029846D-07
     .966721145165D+00  .278875000000D+03 -.382541133002D+00 -.829534553444D-08
    -.642883921553D-10  .100000000000D+01  .150600000000D+04  .000000000000D+00
     .240000000000D+01  .000000000000D+00 -.977888703346D-08  .380000000000D+02
     .540006000000D+06  .400000000000D+01
17 08 11 22  8  0  0.0  .408776104450D-04  .568434188608D-12  .000000000000D+00
     .600000000000D+02 -.109687500000D+02  .451875965305D-08 -.108673116020D+01
    -.631436705589D-06  .395309820306D-02  .103078782558D-04  .515361281013D+04
     .547200000000D+06  .137835741043D-06  .195277711682D+01 -.856816768646D-07
     .959319391183D+00  .183781250000D+03 -.279723735731D+01 -.791640117846D-08
    -.317513225700D-09  .100000000000D+01  .150600000000D+04  .000000000000D+00
     .340000000000D+01  .000000000000D+00 -.102445483208D-07  .600000000000D+02
     .540006000000D+06  .400000000000D+01
18 08 11 22  8  0  0.0 -.110472086817D-03  .386535248253D-11  .000000000000D+00
     .900000000000D+01  .218750000000D+01  .524164690706D-08  .152009782698D+00
     .160187482834D-06  .989326019771D-02  .365450978279D-05  .515373354721D+04
     .547200000000D+06  .204890966415D-07 -.221786648791D+01  .203028321266D-06
     .945132441748D+00  .301906250000D+03 -.244122751348D+01 -.876786521678D-08
    -.989326923723D-10  .100000000000D+01  .150600000000D+04  .000000000000D+00
     .240000000000D+01  .000000000000D+00 -.107102096081D-07  .900000000000D+01
     .540006000000D+06  .400000000000D+01
19 08 11 22  8  0  0.0  .354209914804D-04 -.227373675443D-12  .000000000000D+00
     .220000000000D+02 -.210000000000D+02  .452840291187D-08 -.177001233420D+01
    -.107474625111D-05  .494670425542D-02  .105835497379D-04  .515375694466D+04
     .547200000000D+06 -.726431608200D-07  .200937933373D+01 -.558793544769D-08
     .957105270522D+00  .176281250000D+03 -.418305955871D+00 -.799247577584D-08
    -.211794536378D-09  .100000000000D+01  .150600000000D+04  .000000000000D+00
     .240000000000D+01  .000000000000D+00 -.144354999065D-07  .220000000000D+02
     .540006000000D+06  .400000000000D+01
20 08 11 22  8  0  0.0  .984142534435D-04 -.102318153949D-11  .000000000000D+00
     .200000000000D+01  .124687500000D+02  .512949937852D-08  .265347723883D+00
     .467523932457D-06  .363842525985D-02  .347755849361D-05  .515373363304D+04
     .547200000000D+06 -.745058059692D-08 -.227159253766D+01  .558793544769D-08
     .944733992603D+00  .304312500000D+03  .132479093710D+01 -.865821779238D-08
    -.460733477113D-10  .100000000000D+01  .150600000000D+04  .000000000000D+00
     .240000000000D+01  .000000000000D+00 -.651925802231D-08  .200000000000D+01
     .540006000000D+06  .400000000000D+01
21 08 11 22  8  0  0.0  .415341928601D-04 -.159161572810D-11  .000000000000D+00
     .500000000000D+01  .820625000000D+02  .508485466175D-08  .138696106118D+01
     .446476042271D-05  .143938332330D-01  .879541039467D-05  .515367308044D+04
     .547200000000D+06 -.104308128357D-06  .300709842270D+01  .158324837685D-06
     .935463245205D+00  .197343750000D+03 -.266496212591D+01 -.850321133574D-08
     .425017703693D-10  .100000000000D+01  .150600000000D+04  .000000000000D+00
     .240000000000D+01  .000000000000D+00 -.116415321827D-07  .500000000000D+01
     .540006000000D+06  .400000000000D+01
22 08 11 22  8  0  0.0  .209003221244D-03 -.454747350886D-12  .000000000000D+00
     .152000000000D+03  .487500000000D+01  .523950396066D-08 -.103157256694D+01
     .333413481712D-06  .510124757420D-02  .346824526787D-05  .515366659737D+04
     .547200000000D+06 -.353902578354D-07 -.221176704116D+01  .141561031342D-06
     .942783034812D+00  .303687500000D+03 -.181117662970D+01 -.870250535142D-08
    -.814319633967D-10  .100000000000D+01  .150600000000D+04  .000000000000D+00
     .340000000000D+01  .000000000000D+00 -.176951289177D-07  .152000000000D+03
     .540006000000D+06  .400000000000D+01
23 08 11 22  8  0  0.0  .380711629987D-03  .113686837722D-11  .000000000000D+00
     .110000000000D+02 -.542500000000D+02  .420481800469D-08 -.238590958797D+01
    -.274926424026D-05  .580482208170D-02  .867806375027D-05  .515367687607D+04
     .547200000000D+06 -.111758708954D-06 -.119880299699D+01  .372529029846D-08
     .970902878939D+00  .222343750000D+03  .287801804640D+01 -.791604402072D-08
    -.109647424398D-09  .100000000000D+01  .150600000000D+04  .000000000000D+00
     .240000000000D+01  .000000000000D+00 -.200234353542D-07  .110000000000D+02
     .540006000000D+06  .400000000000D+01
26 08 11 22  8  0  0.0  .181361101568D-04  .443378667114D-11  .000000000000D+00
     .540000000000D+02 -.511875000000D+02  .358372070492D-08 -.283022577671D+01
    -.286847352982D-05  .192858320661D-01  .101029872894D-04  .515364177704D+04
     .547200000000D+06  .189989805222D-06 -.115304329837D+01 -.268220901489D-06
     .993116220580D+00  .197968750000D+03  .960195161240D+00 -.740245119895D-08
    -.575023952056D-10  .100000000000D+01  .150600000000D+04  .000000000000D+00
     .240000000000D+01  .000000000000D+00 -.605359673500D-08  .540000000000D+02
     .540006000000D+06  .400000000000D+01
27 08 11 22  8  0  0.0  .190548598766D-05  .306954461848D-11  .000000000000D+00
     .128000000000D+03  .126562500000D+02  .441768401427D-08  .489714956216D+00
     .759959220886D-06  .208826749586D-01  .926293432713D-05  .515524126244D+04
     .547200000000D+06 -.284984707832D-06 -.215538804068D+00 -.428408384323D-07
     .972187458527D+00  .214531250000D+03 -.168625197795D+01 -.834749056363D-08
     .239652839646D-09  .100000000000D+01  .150600000000D+04  .000000000000D+00
     .240000000000D+01  .000000000000D+00 -.465661287308D-08  .128000000000D+03
     .540006000000D+06  .400000000000D+01
28 08 11 22  8  0  0.0 -.235922634602D-04 -.113686837722D-12  .000000000000D+00
     .104000000000D+03 -.264375000000D+02  .487377444084D-08 -.672409044787D+00
    -.127963721752D-05  .142124714330D-01  .553019344807D-05  .515363097191D+04
     .547200000000D+06 -.106170773506D-06  .919238673249D+00  .216066837311D-06
     .964889924293D+00  .275906250000D+03 -.208343490942D+01 -.847606734794D-08
    -.131434046184D-09  .100000000000D+01  .150600000000D+04  .000000000000D+00
     .485000000000D+01  .000000000000D+00 -.102445483208D-07  .104000000000D+03
     .540006000000D+06  .400000000000D+01
